ATLAS CENTAUR R/B       
1 06155U 72065B   25362.06761737  .00001568  00000+0  21787-3 0  9999
2 06155  35.0025   5.4088 0033351 128.4998 231.8700 14.77450221830662
SL-8 R/B                
1 08459U 75112B   25362.76022177  .00000363  00000+0  12815-3 0  9993
2 08459  74.0600 149.3902 0016692 259.1646 100.7630 14.38156287621674
SL-3 R/B                
1 10114U 77057B   25363.29151142  .00016954  00000+0  38132-3 0  9991
2 10114  97.5691 167.2691 0007561 168.5242 191.6179 15.43366712657465
SEASAT 1                
1 10967U 78064A   25362.86959323  .00000646  00000+0  21908-3 0  9999
2 10967 108.0142 336.8762 0001256 257.6023 102.4982 14.46080304496279
SL-14 R/B               
1 11267U 79011B   25362.95327112  .00001046  00000+0  10114-3 0  9993
2 11267  82.5239 163.6667 0014758 296.4039  63.5666 14.91792259518231
SL-8 R/B                
1 11574U 79089B   25362.92834537  .00000359  00000+0  11661-3 0  9994
2 11574  74.0671 222.0175 0014827  49.8245 310.4207 14.42294223425908
SL-14 R/B               
1 11672U 80005B   25363.12125318  .00000880  00000+0  86669-4 0  9996
2 11672  82.5139  14.1613 0016851  43.2641 316.9898 14.90812625465977
SL-8 R/B                
1 12139U 81003B   25363.00251435  .00027168  00000+0  71849-3 0  9992
2 12139  82.9358 355.2393 0276883  64.4580 298.4997 15.07579516304016
SL-3 R/B                
1 12465U 81046B   25363.26562224  .00016436  00000+0  40903-3 0  9993
2 12465  81.2325  14.1623 0017994 263.5114  96.4079 15.39972778427589
SL-3 R/B                
1 12904U 81103B   25363.24562328  .00009262  00000+0  42244-3 0  9997
2 12904  81.1593 296.0210 0013206 155.1962 204.9907 15.20439063962524
SL-3 R/B                
1 13068U 82013B   25363.21996050  .00006946  00000+0  30755-3 0  9990
2 13068  81.1742 243.3182 0023978  58.3145 302.0420 15.21237749393637
SL-3 R/B                
1 13154U 82039B   25363.21041988  .00004584  00000+0  28083-3 0  9992
2 13154  81.1702 297.1470 0029465 196.2791 163.7491 15.09627205371005
