CCSDS_OMM_VERS = 2.0
CREATION_DATE  = 
ORIGINATOR     = 

OBJECT_NAME    = ATLAS CENTAUR R/B
OBJECT_ID      = 1972-065B
CENTER_NAME    = EARTH
REF_FRAME      = TEME
TIME_SYSTEM    = UTC
MEAN_ELEMENT_THEORY = SGP/SGP4

EPOCH          = 2025-12-28T01:37:22.140768
MEAN_MOTION    = 14.77450221
ECCENTRICITY   = .00333515
INCLINATION    = 35.0025
RA_OF_ASC_NODE = 5.4088
ARG_OF_PERICENTER = 128.4998
MEAN_ANOMALY   = 231.8700

EPHEMERIS_TYPE = 0
CLASSIFICATION_TYPE = U
NORAD_CAT_ID   = 6155
ELEMENT_SET_NO = 999
REV_AT_EPOCH   = 83066
BSTAR          = .2178713E-3
MEAN_MOTION_DOT = .1568E-4
MEAN_MOTION_DDOT = 0

CCSDS_OMM_VERS = 2.0
CREATION_DATE  = 
ORIGINATOR     = 

OBJECT_NAME    = SL-8 R/B
OBJECT_ID      = 1975-112B
CENTER_NAME    = EARTH
REF_FRAME      = TEME
TIME_SYSTEM    = UTC
MEAN_ELEMENT_THEORY = SGP/SGP4

EPOCH          = 2025-12-28T18:14:43.160928
MEAN_MOTION    = 14.38156287
ECCENTRICITY   = .00166928
INCLINATION    = 74.0600
RA_OF_ASC_NODE = 149.3902
ARG_OF_PERICENTER = 259.1646
MEAN_ANOMALY   = 100.7630

EPHEMERIS_TYPE = 0
CLASSIFICATION_TYPE = U
NORAD_CAT_ID   = 8459
ELEMENT_SET_NO = 999
REV_AT_EPOCH   = 62167
BSTAR          = .12814541E-3
MEAN_MOTION_DOT = .363E-5
MEAN_MOTION_DDOT = 0

CCSDS_OMM_VERS = 2.0
CREATION_DATE  = 
ORIGINATOR     = 

OBJECT_NAME    = SL-3 R/B
OBJECT_ID      = 1977-057B
CENTER_NAME    = EARTH
REF_FRAME      = TEME
TIME_SYSTEM    = UTC
MEAN_ELEMENT_THEORY = SGP/SGP4

EPOCH          = 2025-12-29T06:59:46.586688
MEAN_MOTION    = 15.43366712
ECCENTRICITY   = .00075611
INCLINATION    = 97.5691
RA_OF_ASC_NODE = 167.2691
ARG_OF_PERICENTER = 168.5242
MEAN_ANOMALY   = 191.6179

EPHEMERIS_TYPE = 0
CLASSIFICATION_TYPE = U
NORAD_CAT_ID   = 10114
ELEMENT_SET_NO = 999
REV_AT_EPOCH   = 65746
BSTAR          = .38132011E-3
MEAN_MOTION_DOT = .16954E-3
MEAN_MOTION_DDOT = 0

CCSDS_OMM_VERS = 2.0
CREATION_DATE  = 
ORIGINATOR     = 

OBJECT_NAME    = SEASAT 1
OBJECT_ID      = 1978-064A
CENTER_NAME    = EARTH
REF_FRAME      = TEME
TIME_SYSTEM    = UTC
MEAN_ELEMENT_THEORY = SGP/SGP4

EPOCH          = 2025-12-28T20:52:12.855072
MEAN_MOTION    = 14.46080304
ECCENTRICITY   = .00012568
INCLINATION    = 108.0142
RA_OF_ASC_NODE = 336.8762
ARG_OF_PERICENTER = 257.6023
MEAN_ANOMALY   = 102.4982

EPHEMERIS_TYPE = 0
CLASSIFICATION_TYPE = U
NORAD_CAT_ID   = 10967
ELEMENT_SET_NO = 999
REV_AT_EPOCH   = 49627
BSTAR          = .21908449E-3
MEAN_MOTION_DOT = .646E-5
MEAN_MOTION_DDOT = 0

CCSDS_OMM_VERS = 2.0
CREATION_DATE  = 
ORIGINATOR     = 

OBJECT_NAME    = SL-14 R/B
OBJECT_ID      = 1979-011B
CENTER_NAME    = EARTH
REF_FRAME      = TEME
TIME_SYSTEM    = UTC
MEAN_ELEMENT_THEORY = SGP/SGP4

EPOCH          = 2025-12-28T22:52:42.624768
MEAN_MOTION    = 14.91792259
ECCENTRICITY   = .00147581
INCLINATION    = 82.5239
RA_OF_ASC_NODE = 163.6667
ARG_OF_PERICENTER = 296.4039
MEAN_ANOMALY   = 63.5666

EPHEMERIS_TYPE = 0
CLASSIFICATION_TYPE = U
NORAD_CAT_ID   = 11267
ELEMENT_SET_NO = 999
REV_AT_EPOCH   = 51823
BSTAR          = .10113664E-3
MEAN_MOTION_DOT = .1046E-4
MEAN_MOTION_DDOT = 0

CCSDS_OMM_VERS = 2.0
CREATION_DATE  = 
ORIGINATOR     = 

OBJECT_NAME    = SL-8 R/B
OBJECT_ID      = 1979-089B
CENTER_NAME    = EARTH
REF_FRAME      = TEME
TIME_SYSTEM    = UTC
MEAN_ELEMENT_THEORY = SGP/SGP4

EPOCH          = 2025-12-28T22:16:49.039968
MEAN_MOTION    = 14.42294223
ECCENTRICITY   = .00148278
INCLINATION    = 74.0671
RA_OF_ASC_NODE = 222.0175
ARG_OF_PERICENTER = 49.8245
MEAN_ANOMALY   = 310.4207

EPHEMERIS_TYPE = 0
CLASSIFICATION_TYPE = U
NORAD_CAT_ID   = 11574
ELEMENT_SET_NO = 999
REV_AT_EPOCH   = 42590
BSTAR          = .11660569E-3
MEAN_MOTION_DOT = .359E-5
MEAN_MOTION_DDOT = 0

CCSDS_OMM_VERS = 2.0
CREATION_DATE  = 
ORIGINATOR     = 

OBJECT_NAME    = SL-14 R/B
OBJECT_ID      = 1980-005B
CENTER_NAME    = EARTH
REF_FRAME      = TEME
TIME_SYSTEM    = UTC
MEAN_ELEMENT_THEORY = SGP/SGP4

EPOCH          = 2025-12-29T02:54:36.274752
MEAN_MOTION    = 14.90812625
ECCENTRICITY   = .00168518
INCLINATION    = 82.5139
RA_OF_ASC_NODE = 14.1613
ARG_OF_PERICENTER = 43.2641
MEAN_ANOMALY   = 316.9898

EPHEMERIS_TYPE = 0
CLASSIFICATION_TYPE = U
NORAD_CAT_ID   = 11672
ELEMENT_SET_NO = 999
REV_AT_EPOCH   = 46597
BSTAR          = .86669139E-4
MEAN_MOTION_DOT = .88E-5
MEAN_MOTION_DDOT = 0

CCSDS_OMM_VERS = 2.0
CREATION_DATE  = 
ORIGINATOR     = 

OBJECT_NAME    = SL-8 R/B
OBJECT_ID      = 1981-003B
CENTER_NAME    = EARTH
REF_FRAME      = TEME
TIME_SYSTEM    = UTC
MEAN_ELEMENT_THEORY = SGP/SGP4

EPOCH          = 2025-12-29T00:03:37.239840
MEAN_MOTION    = 15.07579516
ECCENTRICITY   = .02768832
INCLINATION    = 82.9358
RA_OF_ASC_NODE = 355.2393
ARG_OF_PERICENTER = 64.4580
MEAN_ANOMALY   = 298.4997

EPHEMERIS_TYPE = 0
CLASSIFICATION_TYPE = U
NORAD_CAT_ID   = 12139
ELEMENT_SET_NO = 999
REV_AT_EPOCH   = 30401
BSTAR          = .71848792E-3
MEAN_MOTION_DOT = .27168E-3
MEAN_MOTION_DDOT = 0

CCSDS_OMM_VERS = 2.0
CREATION_DATE  = 
ORIGINATOR     = 

OBJECT_NAME    = SL-3 R/B
OBJECT_ID      = 1981-046B
CENTER_NAME    = EARTH
REF_FRAME      = TEME
TIME_SYSTEM    = UTC
MEAN_ELEMENT_THEORY = SGP/SGP4

EPOCH          = 2025-12-29T06:22:29.761536
MEAN_MOTION    = 15.39972778
ECCENTRICITY   = .00179946
INCLINATION    = 81.2325
RA_OF_ASC_NODE = 14.1623
ARG_OF_PERICENTER = 263.5114
MEAN_ANOMALY   = 96.4079

EPHEMERIS_TYPE = 0
CLASSIFICATION_TYPE = U
NORAD_CAT_ID   = 12465
ELEMENT_SET_NO = 999
REV_AT_EPOCH   = 42758
BSTAR          = .40903405E-3
MEAN_MOTION_DOT = .16436E-3
MEAN_MOTION_DDOT = 0

CCSDS_OMM_VERS = 2.0
CREATION_DATE  = 
ORIGINATOR     = 

OBJECT_NAME    = SL-3 R/B
OBJECT_ID      = 1981-103B
CENTER_NAME    = EARTH
REF_FRAME      = TEME
TIME_SYSTEM    = UTC
MEAN_ELEMENT_THEORY = SGP/SGP4

EPOCH          = 2025-12-29T05:53:41.851392
MEAN_MOTION    = 15.20439063
ECCENTRICITY   = .00132066
INCLINATION    = 81.1593
RA_OF_ASC_NODE = 296.0210
ARG_OF_PERICENTER = 155.1962
MEAN_ANOMALY   = 204.9907

EPHEMERIS_TYPE = 0
CLASSIFICATION_TYPE = U
NORAD_CAT_ID   = 12904
ELEMENT_SET_NO = 999
REV_AT_EPOCH   = 96252
BSTAR          = .42244349E-3
MEAN_MOTION_DOT = .9262E-4
MEAN_MOTION_DDOT = 0

CCSDS_OMM_VERS = 2.0
CREATION_DATE  = 
ORIGINATOR     = 

OBJECT_NAME    = SL-3 R/B
OBJECT_ID      = 1982-013B
CENTER_NAME    = EARTH
REF_FRAME      = TEME
TIME_SYSTEM    = UTC
MEAN_ELEMENT_THEORY = SGP/SGP4

EPOCH          = 2025-12-29T05:16:44.587200
MEAN_MOTION    = 15.21237749
ECCENTRICITY   = .0023978
INCLINATION    = 81.1742
RA_OF_ASC_NODE = 243.3182
ARG_OF_PERICENTER = 58.3145
MEAN_ANOMALY   = 302.0420

EPHEMERIS_TYPE = 0
CLASSIFICATION_TYPE = U
NORAD_CAT_ID   = 13068
ELEMENT_SET_NO = 999
REV_AT_EPOCH   = 39363
BSTAR          = .30755455E-3
MEAN_MOTION_DOT = .6946E-4
MEAN_MOTION_DDOT = 0

CCSDS_OMM_VERS = 2.0
CREATION_DATE  = 
ORIGINATOR     = 

OBJECT_NAME    = SL-3 R/B
OBJECT_ID      = 1982-039B
CENTER_NAME    = EARTH
REF_FRAME      = TEME
TIME_SYSTEM    = UTC
MEAN_ELEMENT_THEORY = SGP/SGP4

EPOCH          = 2025-12-29T05:03:00.277632
MEAN_MOTION    = 15.09627205
ECCENTRICITY   = .00294651
INCLINATION    = 81.1702
RA_OF_ASC_NODE = 297.1470
ARG_OF_PERICENTER = 196.2791
MEAN_ANOMALY   = 163.7491

EPHEMERIS_TYPE = 0
CLASSIFICATION_TYPE = U
NORAD_CAT_ID   = 13154
ELEMENT_SET_NO = 999
REV_AT_EPOCH   = 37100
BSTAR          = .28082837E-3
MEAN_MOTION_DOT = .4584E-4
MEAN_MOTION_DDOT = 0

